STARLINK-31479          
1 59316U 24056W   26068.53557946  .00000233  00000+0  17998-4 0  9992
2 59316  43.0025 235.6488 0001792 279.3374  80.7275 15.27578422111083
FLOCK 4G-15             
1 62678U 25009BX  26068.71779869  .00012647  00000+0  47575-3 0  9991
2 62678  97.4054 151.1927 0003699 316.8208  43.2740 15.27266411121358
